[{"OBJECT_NAME":"STARLINK-34338","OBJECT_ID":"2025-112F","EPOCH":"2026-03-09T16:39:05.650560","MEAN_MOTION":15.05649471,"ECCENTRICITY":7.284e-5,"INCLINATION":97.604,"RA_OF_ASC_NODE":121.5914,"ARG_OF_PERICENTER":93.3323,"MEAN_ANOMALY":266.7987,"EPHEMERIS_TYPE":0,"CLASSIFICATION_TYPE":"U","NORAD_CAT_ID":64151,"ELEMENT_SET_NO":999,"REV_AT_EPOCH":4331,"BSTAR":0.00037896102,"MEAN_MOTION_DOT":5.411e-5,"MEAN_MOTION_DDOT":0},{"OBJECT_NAME":"UNISAT","OBJECT_ID":"2000-057C","EPOCH":"2026-03-09T10:21:07.624800","MEAN_MOTION":15.08907267,"ECCENTRICITY":0.00363457,"INCLINATION":64.544,"RA_OF_ASC_NODE":74.146,"ARG_OF_PERICENTER":312.3548,"MEAN_ANOMALY":47.4494,"EPHEMERIS_TYPE":0,"CLASSIFICATION_TYPE":"U","NORAD_CAT_ID":26547,"ELEMENT_SET_NO":999,"REV_AT_EPOCH":38146,"BSTAR":0.00046170414,"MEAN_MOTION_DOT":7.242e-5,"MEAN_MOTION_DDOT":0}]
